CCSDS_OMM_VERS = 2.0
CREATION_DATE  = 
ORIGINATOR     = 

OBJECT_NAME    = YOTSUBA-KULOVER
OBJECT_ID      = 1998-067XN
CENTER_NAME    = EARTH
REF_FRAME      = TEME
TIME_SYSTEM    = UTC
MEAN_ELEMENT_THEORY = SGP/SGP4

EPOCH          = 2026-02-26T10:24:34.782624
MEAN_MOTION    = 15.75938229
ECCENTRICITY   = .0005964
INCLINATION    = 51.6227
RA_OF_ASC_NODE = 115.4656
ARG_OF_PERICENTER = 5.3844
MEAN_ANOMALY   = 354.7219

EPHEMERIS_TYPE = 0
CLASSIFICATION_TYPE = U
NORAD_CAT_ID   = 65941
ELEMENT_SET_NO = 999
REV_AT_EPOCH   = 2172
BSTAR          = .1013E-2
MEAN_MOTION_DOT = .162994E-2
MEAN_MOTION_DDOT = 0

CCSDS_OMM_VERS = 2.0
CREATION_DATE  = 
ORIGINATOR     = 

OBJECT_NAME    = BOTAN
OBJECT_ID      = 1998-067XP
CENTER_NAME    = EARTH
REF_FRAME      = TEME
TIME_SYSTEM    = UTC
MEAN_ELEMENT_THEORY = SGP/SGP4

EPOCH          = 2026-02-26T09:48:59.613120
MEAN_MOTION    = 16.04464389
ECCENTRICITY   = .0009209
INCLINATION    = 51.6115
RA_OF_ASC_NODE = 109.1805
ARG_OF_PERICENTER = 21.6689
MEAN_ANOMALY   = 338.4711

EPHEMERIS_TYPE = 0
CLASSIFICATION_TYPE = U
NORAD_CAT_ID   = 65942
ELEMENT_SET_NO = 999
REV_AT_EPOCH   = 2180
BSTAR          = .17551E-2
MEAN_MOTION_DOT = .119293E-1
MEAN_MOTION_DDOT = .80304E-3

CCSDS_OMM_VERS = 2.0
CREATION_DATE  = 
ORIGINATOR     = 

OBJECT_NAME    = E-KAGAKU-1
OBJECT_ID      = 1998-067XQ
CENTER_NAME    = EARTH
REF_FRAME      = TEME
TIME_SYSTEM    = UTC
MEAN_ELEMENT_THEORY = SGP/SGP4

EPOCH          = 2026-02-26T08:56:52.794528
MEAN_MOTION    = 15.75710786
ECCENTRICITY   = .00061785
INCLINATION    = 51.6251
RA_OF_ASC_NODE = 115.8237
ARG_OF_PERICENTER = 13.9440
MEAN_ANOMALY   = 346.1729

EPHEMERIS_TYPE = 0
CLASSIFICATION_TYPE = U
NORAD_CAT_ID   = 65943
ELEMENT_SET_NO = 999
REV_AT_EPOCH   = 2171
BSTAR          = .98364698E-3
MEAN_MOTION_DOT = .156564E-2
MEAN_MOTION_DDOT = 0

CCSDS_OMM_VERS = 2.0
CREATION_DATE  = 
ORIGINATOR     = 

OBJECT_NAME    = HRC MONOBLOCK CAMERA
OBJECT_ID      = 1998-067XR
CENTER_NAME    = EARTH
REF_FRAME      = TEME
TIME_SYSTEM    = UTC
MEAN_ELEMENT_THEORY = SGP/SGP4

EPOCH          = 2026-02-26T13:33:22.078368
MEAN_MOTION    = 15.60907800
ECCENTRICITY   = .00031
INCLINATION    = 51.6282
RA_OF_ASC_NODE = 121.6236
ARG_OF_PERICENTER = 46.5052
MEAN_ANOMALY   = 313.6198

EPHEMERIS_TYPE = 0
CLASSIFICATION_TYPE = U
NORAD_CAT_ID   = 66052
ELEMENT_SET_NO = 999
REV_AT_EPOCH   = 2065
BSTAR          = .61485E-3
MEAN_MOTION_DOT = .52302E-3
MEAN_MOTION_DDOT = 0

CCSDS_OMM_VERS = 2.0
CREATION_DATE  = 
ORIGINATOR     = 

OBJECT_NAME    = HTV-X1
OBJECT_ID      = 2025-241A
CENTER_NAME    = EARTH
REF_FRAME      = TEME
TIME_SYSTEM    = UTC
MEAN_ELEMENT_THEORY = SGP/SGP4

EPOCH          = 2026-02-26T13:00:04.689216
MEAN_MOTION    = 15.48311551
ECCENTRICITY   = .00083443
INCLINATION    = 51.6322
RA_OF_ASC_NODE = 127.4658
ARG_OF_PERICENTER = 135.8715
MEAN_ANOMALY   = 224.2940

EPHEMERIS_TYPE = 0
CLASSIFICATION_TYPE = U
NORAD_CAT_ID   = 66174
ELEMENT_SET_NO = 999
REV_AT_EPOCH   = 51
BSTAR          = .23065818E-3
MEAN_MOTION_DOT = .11988E-3
MEAN_MOTION_DDOT = 0

CCSDS_OMM_VERS = 2.0
CREATION_DATE  = 
ORIGINATOR     = 

OBJECT_NAME    = SZ-21 MODULE
OBJECT_ID      = 2025-246C
CENTER_NAME    = EARTH
REF_FRAME      = TEME
TIME_SYSTEM    = UTC
MEAN_ELEMENT_THEORY = SGP/SGP4

EPOCH          = 2026-02-26T16:09:22.254336
MEAN_MOTION    = 15.67604463
ECCENTRICITY   = .0001434
INCLINATION    = 41.4744
RA_OF_ASC_NODE = 271.1302
ARG_OF_PERICENTER = 288.0377
MEAN_ANOMALY   = 72.0308

EPHEMERIS_TYPE = 0
CLASSIFICATION_TYPE = U
NORAD_CAT_ID   = 66515
ELEMENT_SET_NO = 999
REV_AT_EPOCH   = 1634
BSTAR          = .33362E-3
MEAN_MOTION_DOT = .37285E-3
MEAN_MOTION_DDOT = 0

CCSDS_OMM_VERS = 2.0
CREATION_DATE  = 
ORIGINATOR     = 

OBJECT_NAME    = SHENZHOU-22
OBJECT_ID      = 2025-272A
CENTER_NAME    = EARTH
REF_FRAME      = TEME
TIME_SYSTEM    = UTC
MEAN_ELEMENT_THEORY = SGP/SGP4

EPOCH          = 2026-02-26T01:36:20.998944
MEAN_MOTION    = 15.60105415
ECCENTRICITY   = .00058847
INCLINATION    = 41.4663
RA_OF_ASC_NODE = 278.8535
ARG_OF_PERICENTER = 197.5112
MEAN_ANOMALY   = 162.5524

EPHEMERIS_TYPE = 0
CLASSIFICATION_TYPE = U
NORAD_CAT_ID   = 66645
ELEMENT_SET_NO = 999
REV_AT_EPOCH   = 26764
BSTAR          = .12875241E-3
MEAN_MOTION_DOT = .10434E-3
MEAN_MOTION_DDOT = 0

CCSDS_OMM_VERS = 2.0
CREATION_DATE  = 
ORIGINATOR     = 

OBJECT_NAME    = SOYUZ-MS 28
OBJECT_ID      = 2025-275A
CENTER_NAME    = EARTH
REF_FRAME      = TEME
TIME_SYSTEM    = UTC
MEAN_ELEMENT_THEORY = SGP/SGP4

EPOCH          = 2026-02-26T13:00:04.689216
MEAN_MOTION    = 15.48311551
ECCENTRICITY   = .0008344
INCLINATION    = 51.6322
RA_OF_ASC_NODE = 127.4658
ARG_OF_PERICENTER = 135.8715
MEAN_ANOMALY   = 224.2940

EPHEMERIS_TYPE = 0
CLASSIFICATION_TYPE = U
NORAD_CAT_ID   = 66664
ELEMENT_SET_NO = 999
REV_AT_EPOCH   = 55460
BSTAR          = .23066E-3
MEAN_MOTION_DOT = .11988E-3
MEAN_MOTION_DDOT = 0

CCSDS_OMM_VERS = 2.0
CREATION_DATE  = 
ORIGINATOR     = 

OBJECT_NAME    = DUPLEX
OBJECT_ID      = 1998-067XS
CENTER_NAME    = EARTH
REF_FRAME      = TEME
TIME_SYSTEM    = UTC
MEAN_ELEMENT_THEORY = SGP/SGP4

EPOCH          = 2026-02-26T09:49:49.562688
MEAN_MOTION    = 15.55406903
ECCENTRICITY   = .0001866
INCLINATION    = 51.6288
RA_OF_ASC_NODE = 125.8375
ARG_OF_PERICENTER = 78.2419
MEAN_ANOMALY   = 281.8781

EPHEMERIS_TYPE = 0
CLASSIFICATION_TYPE = U
NORAD_CAT_ID   = 66906
ELEMENT_SET_NO = 999
REV_AT_EPOCH   = 1337
BSTAR          = .5158E-3
MEAN_MOTION_DOT = .35457E-3
MEAN_MOTION_DDOT = 0

CCSDS_OMM_VERS = 2.0
CREATION_DATE  = 
ORIGINATOR     = 

OBJECT_NAME    = ISS OBJECT XT
OBJECT_ID      = 1998-067XT
CENTER_NAME    = EARTH
REF_FRAME      = TEME
TIME_SYSTEM    = UTC
MEAN_ELEMENT_THEORY = SGP/SGP4

EPOCH          = 2026-02-26T10:12:09.357984
MEAN_MOTION    = 15.65743790
ECCENTRICITY   = .000407
INCLINATION    = 51.6259
RA_OF_ASC_NODE = 122.9331
ARG_OF_PERICENTER = 15.6921
MEAN_ANOMALY   = 344.4199

EPHEMERIS_TYPE = 0
CLASSIFICATION_TYPE = U
NORAD_CAT_ID   = 66907
ELEMENT_SET_NO = 999
REV_AT_EPOCH   = 1341
BSTAR          = .11918E-2
MEAN_MOTION_DOT = .124365E-2
MEAN_MOTION_DDOT = 0

CCSDS_OMM_VERS = 2.0
CREATION_DATE  = 
ORIGINATOR     = 

OBJECT_NAME    = ISS OBJECT XU
OBJECT_ID      = 1998-067XU
CENTER_NAME    = EARTH
REF_FRAME      = TEME
TIME_SYSTEM    = UTC
MEAN_ELEMENT_THEORY = SGP/SGP4

EPOCH          = 2026-02-26T10:10:31.852992
MEAN_MOTION    = 15.65817335
ECCENTRICITY   = .0004136
INCLINATION    = 51.6255
RA_OF_ASC_NODE = 122.9225
ARG_OF_PERICENTER = 18.0966
MEAN_ANOMALY   = 342.0176

EPHEMERIS_TYPE = 0
CLASSIFICATION_TYPE = U
NORAD_CAT_ID   = 66908
ELEMENT_SET_NO = 999
REV_AT_EPOCH   = 1341
BSTAR          = .11913E-2
MEAN_MOTION_DOT = .124691E-2
MEAN_MOTION_DDOT = 0

CCSDS_OMM_VERS = 2.0
CREATION_DATE  = 
ORIGINATOR     = 

OBJECT_NAME    = SILVERSAT
OBJECT_ID      = 1998-067XV
CENTER_NAME    = EARTH
REF_FRAME      = TEME
TIME_SYSTEM    = UTC
MEAN_ELEMENT_THEORY = SGP/SGP4

EPOCH          = 2026-02-26T13:41:17.867616
MEAN_MOTION    = 15.67979146
ECCENTRICITY   = .000496
INCLINATION    = 51.6257
RA_OF_ASC_NODE = 121.6500
ARG_OF_PERICENTER = 15.1829
MEAN_ANOMALY   = 344.9315

EPHEMERIS_TYPE = 0
CLASSIFICATION_TYPE = U
NORAD_CAT_ID   = 66909
ELEMENT_SET_NO = 999
REV_AT_EPOCH   = 1344
BSTAR          = .13838E-2
MEAN_MOTION_DOT = .158893E-2
MEAN_MOTION_DDOT = 0

