    ["YOTSUBA-KULOVER", "1 65941U 98067XN  26057.43373591  .00162994  00000+0  10130-2 0  9997", "2 65941  51.6227 115.4656 0005964   5.3844 354.7219 15.75938229 21720"],
    ["BOTAN", "1 65942U 98067XP  26057.40902330  .01192930  80304-3  17551-2 0  9991", "2 65942  51.6115 109.1805 0009209  21.6689 338.4711 16.04464389 21806"],
    ["E-KAGAKU-1", "1 65943U 98067XQ  26057.37283327  .00156564  00000+0  98365-3 0  9992", "2 65943  51.6251 115.8237 0006178  13.9440 346.1729 15.75710786 21719"],
    ["HRC MONOBLOCK CAMERA", "1 66052U 98067XR  26057.56483887  .00052302  00000+0  61485-3 0  9996", "2 66052  51.6282 121.6236 0003100  46.5052 313.6198 15.60907800 20652"],
    ["HTV-X1", "1 66174U 25241A   26057.54172094  .00011988  00000+0  23066-3 0  9996", "2 66174  51.6322 127.4658 0008344 135.8715 224.2940 15.48311551   510"],
    ["SZ-21 MODULE", "1 66515U 25246C   26057.67317424  .00037285  00000+0  33362-3 0  9990", "2 66515  41.4744 271.1302 0001434 288.0377  72.0308 15.67604463 16348"],
    ["SHENZHOU-22", "1 66645U 25272A   26057.06690971  .00010434  00000+0  12875-3 0  9990", "2 66645  41.4663 278.8535 0005884 197.5112 162.5524 15.60105415267640"],
    ["SOYUZ-MS 28", "1 66664U 25275A   26057.54172094  .00011988  00000+0  23066-3 0  9997", "2 66664  51.6322 127.4658 0008344 135.8715 224.2940 15.48311551554608"],
    ["DUPLEX", "1 66906U 98067XS  26057.40960142  .00035457  00000+0  51580-3 0  9998", "2 66906  51.6288 125.8375 0001866  78.2419 281.8781 15.55406903 13379"],
    ["ISS OBJECT XT", "1 66907U 98067XT  26057.42510831  .00124365  00000+0  11918-2 0  9994", "2 66907  51.6259 122.9331 0004070  15.6921 344.4199 15.65743790 13414"],
    ["ISS OBJECT XU", "1 66908U 98067XU  26057.42397978  .00124691  00000+0  11913-2 0  9997", "2 66908  51.6255 122.9225 0004136  18.0966 342.0176 15.65817335 13418"],
    ["SILVERSAT", "1 66909U 98067XV  26057.57034569  .00158893  00000+0  13838-2 0  9997", "2 66909  51.6257 121.6500 0004960  15.1829 344.9315 15.67979146 13444"],
